OBJECT_NAME,OBJECT_ID,EPOCH,MEAN_MOTION,ECCENTRICITY,INCLINATION,RA_OF_ASC_NODE,ARG_OF_PERICENTER,MEAN_ANOMALY,EPHEMERIS_TYPE,CLASSIFICATION_TYPE,NORAD_CAT_ID,ELEMENT_SET_NO,REV_AT_EPOCH,BSTAR,MEAN_MOTION_DOT,MEAN_MOTION_DDOT
STARLINK-37850,2026-126G,2026-07-22T06:00:02.000160,15.62960772,.00020928,97.2850,65.0307,105.8118,139.4676,0,U,69426,999,597,-.32121821E-1,-.2528228E-1,0
STARLINK-37823,2026-126H,2026-07-22T06:00:02.000160,15.71252506,.0002122,97.2856,65.0012,91.9571,84.0724,0,U,69427,999,595,-.23217741E-1,-.2558243E-1,0
STARLINK-37834,2026-126J,2026-07-22T06:00:02.000160,15.72112930,.00016506,97.2857,64.9826,90.1542,41.3916,0,U,69428,999,589,-.88623757E-2,-.1044486E-1,0
STARLINK-37857,2026-126K,2026-07-22T06:00:02.000160,15.69322839,.00020213,97.2857,65.0051,98.6468,87.7685,0,U,69429,999,595,-.24943342E-1,-.2537738E-1,0
STARLINK-37866,2026-126L,2026-07-22T06:00:02.000160,15.68632648,.00017115,97.2846,65.0640,104.8664,217.1464,0,U,69430,999,602,-.2544977E-1,-.2518682E-1,0
STARLINK-37555,2026-126M,2026-07-22T06:00:02.000160,15.57703450,.00022333,97.2856,64.9981,82.9961,80.5767,0,U,69431,999,602,-.36834287E-1,-.238783E-1,0
STARLINK-37870,2026-126N,2026-07-22T06:19:39.826560,15.72945641,.00010477,97.2856,65.0626,103.8491,256.2890,0,U,69432,999,827,-.50903683E-2,-.640055E-2,0
STARLINK-37872,2026-126P,2026-07-22T06:00:02.000160,15.50133468,.00020562,97.2858,64.9963,83.7513,79.5170,0,U,69433,999,602,-.27438949E-1,-.1386099E-1,0
STARLINK-37815,2026-126Q,2026-07-22T06:00:02.000160,15.64806026,.00014793,97.2859,64.9518,86.4871,327.1510,0,U,69434,999,600,-.29525059E-1,-.2503302E-1,0
STARLINK-37801,2026-126R,2026-07-22T06:00:02.000160,15.62762211,.00017999,97.2857,64.9790,84.8557,32.9997,0,U,69435,999,595,-.30247982E-1,-.2382483E-1,0
STARLINK-37800,2026-126S,2026-07-22T06:00:02.000160,15.70345582,.0001931,97.2858,64.9892,83.6757,65.7754,0,U,69436,999,595,-.23864783E-1,-.2534292E-1,0
STARLINK-37792,2026-126T,2026-07-22T06:00:02.000160,15.49192403,.00013332,97.2858,64.9805,94.5508,31.8871,0,U,69437,999,602,-.43335966E-3,-.23592E-3,0
STARLINK-37783,2026-126U,2026-07-22T06:00:02.000160,15.52223985,.00019333,97.2854,65.0085,98.8239,83.7548,0,U,69438,999,602,-.40546998E-1,-.2174552E-1,0
STARLINK-37771,2026-126V,2026-07-22T06:00:02.000160,15.62665271,.0001502,97.2850,64.9299,84.1985,289.2624,0,U,69439,999,600,-.32450174E-1,-.2524419E-1,0
STARLINK-37747,2026-126W,2026-07-22T06:00:02.000160,15.67555739,.00021555,97.2853,65.0201,112.7458,105.8639,0,U,69440,999,602,-.26710591E-1,-.2528162E-1,0
STARLINK-37629,2026-127A,2026-07-22T06:00:02.000160,15.58879457,.00007876,53.1595,88.4556,64.7062,60.0475,0,U,69443,999,600,-.12072432E-1,-.869558E-2,0
STARLINK-37509,2026-127B,2026-07-22T06:00:02.000160,15.49288770,.00010202,53.1595,88.8265,96.7002,203.4681,0,U,69444,999,569,.46225956E-3,.25326E-3,0
STARLINK-37641,2026-127C,2026-07-22T06:00:02.000160,15.49322130,.00012955,53.1590,88.5993,116.7848,294.8799,0,U,69445,999,597,.1042188E-2,.57972E-3,0
STARLINK-37522,2026-127D,2026-07-22T06:00:02.000160,15.51725964,.00011339,53.1588,88.7323,114.0470,232.6604,0,U,69446,999,590,-.26888929E-1,-.1455506E-1,0
STARLINK-37640,2026-127E,2026-07-22T06:00:02.000160,15.49271439,.00008639,53.1591,88.5789,111.9591,308.9264,0,U,69447,999,602,.77275813E-3,.42708E-3,0
STARLINK-37572,2026-127F,2026-07-22T06:00:02.000160,15.53737602,.00010019,53.1600,88.4367,91.7509,40.7119,0,U,69448,999,575,-.3447527E-1,-.2008719E-1,0
STARLINK-37643,2026-127G,2026-07-22T06:00:02.000160,15.49240676,.00007252,53.1592,88.6588,130.8488,251.7361,0,U,69449,999,595,.87725997E-3,.48527E-3,0
STARLINK-37601,2026-127H,2026-07-22T06:00:02.000160,15.55412880,.00009273,53.1599,88.3897,69.1154,86.6559,0,U,69450,999,574,-.32641483E-1,-.2021761E-1,0
STARLINK-37578,2026-127J,2026-07-22T06:00:02.000160,15.50350729,.00009859,53.1600,88.4271,59.2056,77.0195,0,U,69451,999,601,-.27452464E-1,-.1418489E-1,0
STARLINK-37577,2026-127K,2026-07-22T06:00:02.000160,15.49321798,.00011557,53.1593,88.8639,102.4814,176.3861,0,U,69452,999,602,.60079005E-3,.33122E-3,0
STARLINK-37500,2026-127L,2026-07-22T06:00:02.000160,15.54177871,.00011627,53.1599,88.2559,84.6220,135.4895,0,U,69453,999,601,-.3420256E-1,-.2023693E-1,0
STARLINK-37575,2026-127M,2026-07-22T00:01:08.183424,15.49694173,.00016258,53.1596,89.9812,10.5053,349.5990,0,U,69454,999,688,.31952049E-2,.183984E-2,0
STARLINK-37642,2026-127N,2026-07-22T06:00:02.000160,15.53001724,.0001131,53.1600,88.3405,83.1617,95.1003,0,U,69455,999,601,-.34432153E-1,-.1958689E-1,0
STARLINK-37513,2026-127P,2026-07-22T06:00:02.000160,15.49287218,.00006211,53.1594,88.0373,89.8160,234.1740,0,U,69456,999,597,.49124306E-3,.26946E-3,0
STARLINK-37563,2026-127Q,2026-07-22T00:16:21.504000,15.49392392,.0000967,53.1599,90.0563,163.5160,196.5881,0,U,69457,999,688,.12547302E-2,.7017E-3,0
STARLINK-37565,2026-127R,2026-07-22T06:00:02.000160,15.49280119,.00008983,53.1592,88.5776,73.2252,345.6543,0,U,69458,999,592,.62811281E-3,.34604E-3,0
STARLINK-37498,2026-127S,2026-07-22T06:00:02.000160,15.49280935,.00012754,53.1596,88.4391,107.2619,21.4663,0,U,69459,999,592,.67544675E-3,.37259E-3,0
STARLINK-37384,2026-127T,2026-07-22T06:00:02.000160,15.56119894,.0000862,53.1591,87.9968,96.9669,249.6562,0,U,69460,999,574,-.31747429E-1,-.2019195E-1,0
STARLINK-37707,2026-127U,2026-07-22T00:00:02.000160,15.49272077,.00007029,53.1596,89.9129,91.8016,302.1998,0,U,69461,999,603,.65526281E-3,.36116E-3,0
STARLINK-37525,2026-127V,2026-07-22T06:00:02.000160,15.49277535,.00009205,53.1599,88.3215,96.2858,88.5691,0,U,69462,999,597,.62407756E-3,.34375E-3,0
STARLINK-37526,2026-127W,2026-07-22T06:00:02.000160,15.49279045,.0001707,53.1590,88.6088,85.2736,316.8990,0,U,69463,999,602,.62320235E-3,.34328E-3,0
STARLINK-37574,2026-127X,2026-07-22T06:12:53.090784,15.49248469,.00018251,53.1592,88.7461,143.0732,217.0403,0,U,69464,999,692,.1328242E-2,.73969E-3,0
STARLINK-37535,2026-127Y,2026-07-22T06:00:02.000160,15.49275413,.00009939,53.1597,88.4375,97.5209,28.8932,0,U,69465,999,591,.63150048E-3,.34788E-3,0
STARLINK-37583,2026-127Z,2026-07-22T06:00:02.000160,15.49426385,.0000696,53.1593,87.9766,88.2725,263.5705,0,U,69466,999,602,-.28342494E-2,-.155617E-2,0
STARLINK-37546,2026-127AA,2026-07-22T06:00:02.000160,15.49276865,.00005432,53.1594,88.4505,83.3445,35.2092,0,U,69467,999,600,.60767217E-3,.33455E-3,0
STARLINK-37532,2026-127AB,2026-07-21T03:06:31.335840,15.49334051,.00009947,53.1596,93.7735,98.1174,261.9948,0,U,69468,999,675,.48267356E-3,.26511E-3,0
STARLINK-37708,2026-127AC,2026-07-22T00:00:02.000160,15.49268421,.00011742,53.1595,89.7925,84.0477,6.5703,0,U,69469,999,601,.72138077E-3,.39819E-3,0
STARLINK-37686,2026-127AD,2026-07-22T00:00:02.000160,15.49268675,.00013238,53.1593,89.7870,83.8846,8.7901,0,U,69470,999,591,.73604154E-3,.40642E-3,0
STARLINK-37451,2026-127AE,2026-07-21T15:50:40.774560,15.49368165,.00025519,53.1596,90.6645,88.8685,271.2617,0,U,69471,999,684,.10934377E-2,.60971E-3,0
DTC TEST OBJECT A,2026-128A,2026-07-13T09:27:12.812256,15.53518270,.00116266,54.9999,184.1420,6.4285,353.6897,0,U,69472,999,530,.98124681E-4,.5883E-4,0
DTC TEST OBJECT B,2026-128B,2026-07-22T05:34:14.487168,15.55381821,.00138853,54.9914,142.9829,44.1322,316.0819,0,U,69473,999,667,.43299553E-3,.2967E-3,0
TJS-25,2026-129A,2026-07-22T06:45:37.737792,1.00268940,.00027983,5.9438,330.3701,274.7939,276.4226,0,U,69474,999,41,0,-.363E-5,0
STARLINK-37816,2026-131A,2026-07-22T06:23:45.108384,15.49231715,.00011932,97.2845,224.9425,82.4197,277.7190,0,U,69478,999,766,.10163301E-2,.5566E-3,0
STARLINK-37878,2026-131B,2026-07-22T06:00:02.000160,15.33460043,.00007345,97.2856,224.9152,55.9966,184.9107,0,U,69479,999,601,-.11361861E-2,-.36596E-3,0
STARLINK-37817,2026-131C,2026-07-22T06:00:02.000160,15.37655781,.00023574,97.2850,224.9203,108.0842,142.5534,0,U,69480,999,603,-.90671298E-1,-.2957306E-1,0
STARLINK-37727,2026-131D,2026-07-22T06:00:02.000160,15.38688787,.0001913,97.2851,224.9152,69.7018,165.4972,0,U,69481,999,603,-.68894745E-1,-.2344533E-1,0
STARLINK-37814,2026-131E,2026-07-22T06:00:02.000160,15.36988116,.00013274,97.2853,224.9305,99.0222,175.2911,0,U,69482,999,603,-.16082271E-2,-.57751E-3,0
STARLINK-37869,2026-131F,2026-07-22T06:00:02.000160,15.36980720,.0001723,97.2856,224.9294,100.2992,175.0806,0,U,69483,999,593,-.89024433E-3,-.32104E-3,0
STARLINK-37873,2026-131G,2026-07-22T06:00:02.000160,15.36978144,.00014627,97.2853,224.9308,95.9705,183.3130,0,U,69484,999,598,-.93091627E-3,-.33557E-3,0
STARLINK-37892,2026-131H,2026-07-22T06:00:02.000160,15.37001673,.00008466,97.2852,224.9477,71.1531,242.5286,0,U,69485,999,603,-.33825297E-3,-.12286E-3,0
STARLINK-37893,2026-131J,2026-07-22T06:00:02.000160,15.36983149,.0001104,97.2852,224.9592,86.6324,254.1076,0,U,69486,999,598,-.55851475E-3,-.20202E-3,0
STARLINK-37842,2026-131K,2026-07-22T06:00:02.000160,15.36931584,.00019811,97.2857,224.9519,83.8188,248.2324,0,U,69487,999,593,-.38125713E-3,-.13805E-3,0
STARLINK-37449,2026-131L,2026-07-22T06:00:02.000160,15.36976453,.0001071,97.2848,224.9694,100.5213,267.8616,0,U,69488,999,603,-.74356105E-3,-.26841E-3,0
STARLINK-37831,2026-131M,2026-07-22T07:45:48.739392,15.48935056,.00059069,97.2861,225.0186,131.6423,228.5335,0,U,69489,999,767,-.27614226E-2,-.146346E-2,0
STARLINK-37879,2026-131N,2026-07-22T06:00:02.000160,15.44625661,.00014173,97.2849,224.9767,119.6735,257.3996,0,U,69490,999,603,-.57242229E-1,-.2372614E-1,0
STARLINK-37856,2026-131P,2026-07-22T05:56:51.908064,15.47019992,.00028971,97.2868,224.9676,10.2303,349.9005,0,U,69491,999,766,-.22033224E-1,-.1013567E-1,0
STARLINK-37568,2026-131Q,2026-07-22T07:35:46.067424,15.47653455,.0001173,97.2843,225.0287,136.0036,224.1308,0,U,69492,999,767,-.11918373E-1,-.571784E-2,0
STARLINK-37855,2026-131R,2026-07-22T06:00:02.000160,15.36980914,.00015319,97.2852,225.0053,96.0513,353.2526,0,U,69493,999,602,-.55962953E-3,-.20241E-3,0
